CCSDS_OMM_VERS = 2.0
CREATION_DATE  = 
ORIGINATOR     = 

OBJECT_NAME    = IDEFIX & ARIANE 42P R/B
OBJECT_ID      = 2002-021B
CENTER_NAME    = EARTH
REF_FRAME      = TEME
TIME_SYSTEM    = UTC
MEAN_ELEMENT_THEORY = SGP/SGP4

EPOCH          = 2026-03-02T18:48:17.290080
MEAN_MOTION    = 14.31020279
ECCENTRICITY   = .0011181
INCLINATION    = 98.5864
RA_OF_ASC_NODE = 0.4726
ARG_OF_PERICENTER = 203.1585
MEAN_ANOMALY   = 156.9095

EPHEMERIS_TYPE = 0
CLASSIFICATION_TYPE = U
NORAD_CAT_ID   = 27422
ELEMENT_SET_NO = 999
REV_AT_EPOCH   = 24303
BSTAR          = .14692E-3
MEAN_MOTION_DOT = .343E-5
MEAN_MOTION_DDOT = 0

CCSDS_OMM_VERS = 2.0
CREATION_DATE  = 
ORIGINATOR     = 

OBJECT_NAME    = AQUA
OBJECT_ID      = 2002-022A
CENTER_NAME    = EARTH
REF_FRAME      = TEME
TIME_SYSTEM    = UTC
MEAN_ELEMENT_THEORY = SGP/SGP4

EPOCH          = 2026-03-02T21:38:17.664576
MEAN_MOTION    = 14.61956893
ECCENTRICITY   = .0000685
INCLINATION    = 98.4162
RA_OF_ASC_NODE = 29.1435
ARG_OF_PERICENTER = 56.8605
MEAN_ANOMALY   = 326.0417

EPHEMERIS_TYPE = 0
CLASSIFICATION_TYPE = U
NORAD_CAT_ID   = 27424
ELEMENT_SET_NO = 999
REV_AT_EPOCH   = 26774
BSTAR          = .26639E-3
MEAN_MOTION_DOT = .1285E-4
MEAN_MOTION_DDOT = 0

CCSDS_OMM_VERS = 2.0
CREATION_DATE  = 
ORIGINATOR     = 

OBJECT_NAME    = CZ-4B R/B
OBJECT_ID      = 2002-024C
CENTER_NAME    = EARTH
REF_FRAME      = TEME
TIME_SYSTEM    = UTC
MEAN_ELEMENT_THEORY = SGP/SGP4

EPOCH          = 2026-03-02T19:09:25.979040
MEAN_MOTION    = 14.14546123
ECCENTRICITY   = .005079
INCLINATION    = 98.8854
RA_OF_ASC_NODE = 115.2392
ARG_OF_PERICENTER = 43.5863
MEAN_ANOMALY   = 74.0923

EPHEMERIS_TYPE = 0
CLASSIFICATION_TYPE = U
NORAD_CAT_ID   = 27432
ELEMENT_SET_NO = 999
REV_AT_EPOCH   = 22826
BSTAR          = .50114E-4
MEAN_MOTION_DOT = .53E-6
MEAN_MOTION_DDOT = 0

CCSDS_OMM_VERS = 2.0
CREATION_DATE  = 
ORIGINATOR     = 

OBJECT_NAME    = MIDORI II (ADEOS-II)
OBJECT_ID      = 2002-056A
CENTER_NAME    = EARTH
REF_FRAME      = TEME
TIME_SYSTEM    = UTC
MEAN_ELEMENT_THEORY = SGP/SGP4

EPOCH          = 2026-03-02T19:16:37.922880
MEAN_MOTION    = 14.29278638
ECCENTRICITY   = .0001837
INCLINATION    = 98.7757
RA_OF_ASC_NODE = 20.2338
ARG_OF_PERICENTER = 52.7626
MEAN_ANOMALY   = 307.3723

EPHEMERIS_TYPE = 0
CLASSIFICATION_TYPE = U
NORAD_CAT_ID   = 27597
ELEMENT_SET_NO = 999
REV_AT_EPOCH   = 20931
BSTAR          = .15735E-3
MEAN_MOTION_DOT = .355E-5
MEAN_MOTION_DDOT = 0

CCSDS_OMM_VERS = 2.0
CREATION_DATE  = 
ORIGINATOR     = 

OBJECT_NAME    = H-2A R/B
OBJECT_ID      = 2002-056E
CENTER_NAME    = EARTH
REF_FRAME      = TEME
TIME_SYSTEM    = UTC
MEAN_ELEMENT_THEORY = SGP/SGP4

EPOCH          = 2026-03-02T19:09:44.801280
MEAN_MOTION    = 14.33755222
ECCENTRICITY   = .007007
INCLINATION    = 98.3190
RA_OF_ASC_NODE = 22.4269
ARG_OF_PERICENTER = 181.1545
MEAN_ANOMALY   = 240.0865

EPHEMERIS_TYPE = 0
CLASSIFICATION_TYPE = U
NORAD_CAT_ID   = 27601
ELEMENT_SET_NO = 999
REV_AT_EPOCH   = 21312
BSTAR          = .12447E-3
MEAN_MOTION_DOT = .314E-5
MEAN_MOTION_DDOT = 0

CCSDS_OMM_VERS = 2.0
CREATION_DATE  = 
ORIGINATOR     = 

OBJECT_NAME    = CZ-4B R/B
OBJECT_ID      = 2003-049C
CENTER_NAME    = EARTH
REF_FRAME      = TEME
TIME_SYSTEM    = UTC
MEAN_ELEMENT_THEORY = SGP/SGP4

EPOCH          = 2026-03-02T13:48:42.255648
MEAN_MOTION    = 14.55011904
ECCENTRICITY   = .004703
INCLINATION    = 98.6871
RA_OF_ASC_NODE = 56.2015
ARG_OF_PERICENTER = 253.0831
MEAN_ANOMALY   = 106.5205

EPHEMERIS_TYPE = 0
CLASSIFICATION_TYPE = U
NORAD_CAT_ID   = 28059
ELEMENT_SET_NO = 999
REV_AT_EPOCH   = 18556
BSTAR          = .12953E-3
MEAN_MOTION_DOT = .514E-5
MEAN_MOTION_DDOT = 0

CCSDS_OMM_VERS = 2.0
CREATION_DATE  = 
ORIGINATOR     = 

OBJECT_NAME    = CZ-2C R/B
OBJECT_ID      = 2004-012C
CENTER_NAME    = EARTH
REF_FRAME      = TEME
TIME_SYSTEM    = UTC
MEAN_ELEMENT_THEORY = SGP/SGP4

EPOCH          = 2026-03-02T16:47:01.749120
MEAN_MOTION    = 15.63563856
ECCENTRICITY   = .0013394
INCLINATION    = 97.7249
RA_OF_ASC_NODE = 126.3342
ARG_OF_PERICENTER = 338.0425
MEAN_ANOMALY   = 22.0257

EPHEMERIS_TYPE = 0
CLASSIFICATION_TYPE = U
NORAD_CAT_ID   = 28222
ELEMENT_SET_NO = 999
REV_AT_EPOCH   = 20318
BSTAR          = .62271E-3
MEAN_MOTION_DOT = .58146E-3
MEAN_MOTION_DDOT = 0

CCSDS_OMM_VERS = 2.0
CREATION_DATE  = 
ORIGINATOR     = 

OBJECT_NAME    = SL-16 R/B
OBJECT_ID      = 2004-021B
CENTER_NAME    = EARTH
REF_FRAME      = TEME
TIME_SYSTEM    = UTC
MEAN_ELEMENT_THEORY = SGP/SGP4

EPOCH          = 2026-03-02T19:26:27.313440
MEAN_MOTION    = 14.14599702
ECCENTRICITY   = .000369
INCLINATION    = 70.9991
RA_OF_ASC_NODE = 246.9308
ARG_OF_PERICENTER = 23.6426
MEAN_ANOMALY   = 336.4865

EPHEMERIS_TYPE = 0
CLASSIFICATION_TYPE = U
NORAD_CAT_ID   = 28353
ELEMENT_SET_NO = 999
REV_AT_EPOCH   = 12186
BSTAR          = -.2794E-4
MEAN_MOTION_DOT = -.101E-5
MEAN_MOTION_DDOT = 0

CCSDS_OMM_VERS = 2.0
CREATION_DATE  = 
ORIGINATOR     = 

OBJECT_NAME    = CZ-4B R/B
OBJECT_ID      = 2004-035C
CENTER_NAME    = EARTH
REF_FRAME      = TEME
TIME_SYSTEM    = UTC
MEAN_ELEMENT_THEORY = SGP/SGP4

EPOCH          = 2026-03-02T15:28:37.448832
MEAN_MOTION    = 15.28910749
ECCENTRICITY   = .0031865
INCLINATION    = 97.3510
RA_OF_ASC_NODE = 95.9723
ARG_OF_PERICENTER = 357.0727
MEAN_ANOMALY   = 3.0321

EPHEMERIS_TYPE = 0
CLASSIFICATION_TYPE = U
NORAD_CAT_ID   = 28415
ELEMENT_SET_NO = 999
REV_AT_EPOCH   = 17883
BSTAR          = .35643E-3
MEAN_MOTION_DOT = .1009E-3
MEAN_MOTION_DDOT = 0

CCSDS_OMM_VERS = 2.0
CREATION_DATE  = 
ORIGINATOR     = 

OBJECT_NAME    = CZ-2C R/B
OBJECT_ID      = 2004-046B
CENTER_NAME    = EARTH
REF_FRAME      = TEME
TIME_SYSTEM    = UTC
MEAN_ELEMENT_THEORY = SGP/SGP4

EPOCH          = 2026-03-02T18:05:58.418304
MEAN_MOTION    = 14.26989516
ECCENTRICITY   = .0139468
INCLINATION    = 98.1988
RA_OF_ASC_NODE = 337.1695
ARG_OF_PERICENTER = 174.9003
MEAN_ANOMALY   = 185.3638

EPHEMERIS_TYPE = 0
CLASSIFICATION_TYPE = U
NORAD_CAT_ID   = 28480
ELEMENT_SET_NO = 999
REV_AT_EPOCH   = 10751
BSTAR          = .72804E-4
MEAN_MOTION_DOT = .156E-5
MEAN_MOTION_DDOT = 0

CCSDS_OMM_VERS = 2.0
CREATION_DATE  = 
ORIGINATOR     = 

OBJECT_NAME    = ARIANE 5 R/B
OBJECT_ID      = 2004-049H
CENTER_NAME    = EARTH
REF_FRAME      = TEME
TIME_SYSTEM    = UTC
MEAN_ELEMENT_THEORY = SGP/SGP4

EPOCH          = 2026-03-02T10:10:53.681088
MEAN_MOTION    = 14.85249915
ECCENTRICITY   = .00844684
INCLINATION    = 98.2615
RA_OF_ASC_NODE = 229.6099
ARG_OF_PERICENTER = 15.4673
MEAN_ANOMALY   = 344.9092

EPHEMERIS_TYPE = 0
CLASSIFICATION_TYPE = U
NORAD_CAT_ID   = 28499
ELEMENT_SET_NO = 999
REV_AT_EPOCH   = 14471
BSTAR          = .11590943E-3
MEAN_MOTION_DOT = .995E-5
MEAN_MOTION_DDOT = 0

CCSDS_OMM_VERS = 2.0
CREATION_DATE  = 
ORIGINATOR     = 

OBJECT_NAME    = CZ-2D R/B
OBJECT_ID      = 2005-024B
CENTER_NAME    = EARTH
REF_FRAME      = TEME
TIME_SYSTEM    = UTC
MEAN_ELEMENT_THEORY = SGP/SGP4

EPOCH          = 2026-03-02T17:11:53.599776
MEAN_MOTION    = 15.59415428
ECCENTRICITY   = .0006825
INCLINATION    = 97.3597
RA_OF_ASC_NODE = 76.6101
ARG_OF_PERICENTER = 64.1612
MEAN_ANOMALY   = 296.0348

EPHEMERIS_TYPE = 0
CLASSIFICATION_TYPE = U
NORAD_CAT_ID   = 28738
ELEMENT_SET_NO = 999
REV_AT_EPOCH   = 13869
BSTAR          = .60696E-3
MEAN_MOTION_DOT = .48095E-3
MEAN_MOTION_DDOT = 0

